{
  "links" : {
    "next" : "https://api.nasa.gov/neo/rest/v1/feed?start_date=2015-04-23&end_date=2015-04-23&detailed=true&api_key=t0TVs3DtDT2H8Oy2Zy8m2eVrNsAVKAexjcZXUckd",
    "prev" : "https://api.nasa.gov/neo/rest/v1/feed?start_date=2015-04-21&end_date=2015-04-21&detailed=true&api_key=t0TVs3DtDT2H8Oy2Zy8m2eVrNsAVKAexjcZXUckd",
    "self" : "https://api.nasa.gov/neo/rest/v1/feed?start_date=2015-04-22&end_date=2015-04-22&detailed=true&api_key=t0TVs3DtDT2H8Oy2Zy8m2eVrNsAVKAexjcZXUckd"
  },
  "element_count" : 9,
  "near_earth_objects" : {
    "2015-04-22" : [ {
      "links" : {
        "self" : "https://api.nasa.gov/neo/rest/v1/neo/3699514?api_key=t0TVs3DtDT2H8Oy2Zy8m2eVrNsAVKAexjcZXUckd"
      },
      "neo_reference_id" : "3699514",
      "name" : "(2014 WF365)",
      "nasa_jpl_url" : "http://ssd.jpl.nasa.gov/sbdb.cgi?sstr=3699514",
      "absolute_magnitude_h" : 17.2,
      "estimated_diameter" : {
        "kilometers" : {
          "estimated_diameter_min" : 0.9650614696,
          "estimated_diameter_max" : 2.1579430484
        },
        "meters" : {
          "estimated_diameter_min" : 965.0614695789,
          "estimated_diameter_max" : 2157.9430484443
        },
        "miles" : {
          "estimated_diameter_min" : 0.5996612104,
          "estimated_diameter_max" : 1.34088323
        },
        "feet" : {
          "estimated_diameter_min" : 3166.2122718533,
          "estimated_diameter_max" : 7079.8658710581
        }
      },
      "is_potentially_hazardous_asteroid" : false,
      "close_approach_data" : [ {
        "close_approach_date" : "2015-04-22",
        "epoch_date_close_approach" : 1429686000000,
        "relative_velocity" : {
          "kilometers_per_second" : "24.1423252926",
          "kilometers_per_hour" : "86912.3710534522",
          "miles_per_hour" : "54003.9674470742"
        },
        "miss_distance" : {
          "astronomical" : "0.4639169998",
          "lunar" : "180.4637145996",
          "kilometers" : "69400992",
          "miles" : "43123780"
        },
        "orbiting_body" : "Earth"
      } ],
      "orbital_data" : {
        "orbit_id" : "41",
        "orbit_determination_date" : "2017-09-26 06:50:10",
        "orbit_uncertainty" : "1",
        "minimum_orbit_intersection" : ".288539",
        "jupiter_tisserand_invariant" : "3.112",
        "epoch_osculation" : "2458000.5",
        "eccentricity" : ".7634295603473189",
        "semi_major_axis" : "2.260228211595653",
        "inclination" : "17.89236175263101",
        "ascending_node_longitude" : "165.7701362410085",
        "orbital_period" : "1241.157408479784",
        "perihelion_distance" : ".5347031817325767",
        "perihelion_argument" : "15.14056388335034",
        "aphelion_distance" : "3.985753241458729",
        "perihelion_time" : "2458364.437426958264",
        "mean_anomaly" : "254.4392767510044",
        "mean_motion" : ".2900518480093041",
        "equinox" : "J2000"
      }
    }, {
      "links" : {
        "self" : "https://api.nasa.gov/neo/rest/v1/neo/3763945?api_key=t0TVs3DtDT2H8Oy2Zy8m2eVrNsAVKAexjcZXUckd"
      },
      "neo_reference_id" : "3763945",
      "name" : "(2016 WU)",
      "nasa_jpl_url" : "http://ssd.jpl.nasa.gov/sbdb.cgi?sstr=3763945",
      "absolute_magnitude_h" : 27.3,
      "estimated_diameter" : {
        "kilometers" : {
          "estimated_diameter_min" : 0.0092162655,
          "estimated_diameter_max" : 0.0206081961
        },
        "meters" : {
          "estimated_diameter_min" : 9.216265485,
          "estimated_diameter_max" : 20.6081961232
        },
        "miles" : {
          "estimated_diameter_min" : 0.0057267201,
          "estimated_diameter_max" : 0.0128053354
        },
        "feet" : {
          "estimated_diameter_min" : 30.2370924539,
          "estimated_diameter_max" : 67.6121941689
        }
      },
      "is_potentially_hazardous_asteroid" : false,
      "close_approach_data" : [ {
        "close_approach_date" : "2015-04-22",
        "epoch_date_close_approach" : 1429686000000,
        "relative_velocity" : {
          "kilometers_per_second" : "4.7482311413",
          "kilometers_per_hour" : "17093.6321087711",
          "miles_per_hour" : "10621.3182400306"
        },
        "miss_distance" : {
          "astronomical" : "0.1951780216",
          "lunar" : "75.9242477417",
          "kilometers" : "29198216",
          "miles" : "18142930"
        },
        "orbiting_body" : "Earth"
      } ],
      "orbital_data" : {
        "orbit_id" : "8",
        "orbit_determination_date" : "2017-04-06 08:22:07",
        "orbit_uncertainty" : "6",
        "minimum_orbit_intersection" : ".00219311",
        "jupiter_tisserand_invariant" : "5.891",
        "epoch_osculation" : "2458000.5",
        "eccentricity" : ".1746445944349754",
        "semi_major_axis" : "1.036264628856051",
        "inclination" : "8.41056029335553",
        "ascending_node_longitude" : "54.6833833161865",
        "orbital_period" : "385.3048170993658",
        "perihelion_distance" : ".8552866130221755",
        "perihelion_argument" : "272.9185642980249",
        "aphelion_distance" : "1.217242644689926",
        "perihelion_time" : "2458022.448077991957",
        "mean_anomaly" : "339.4933576574859",
        "mean_motion" : ".9343251992283296",
        "equinox" : "J2000"
      }
    }, {
      "links" : {
        "self" : "https://api.nasa.gov/neo/rest/v1/neo/3772975?api_key=t0TVs3DtDT2H8Oy2Zy8m2eVrNsAVKAexjcZXUckd"
      },
      "neo_reference_id" : "3772975",
      "name" : "(2017 FK101)",
      "nasa_jpl_url" : "http://ssd.jpl.nasa.gov/sbdb.cgi?sstr=3772975",
      "absolute_magnitude_h" : 22.692,
      "estimated_diameter" : {
        "kilometers" : {
          "estimated_diameter_min" : 0.0769404951,
          "estimated_diameter_max" : 0.1720441773
        },
        "meters" : {
          "estimated_diameter_min" : 76.9404951018,
          "estimated_diameter_max" : 172.0441772701
        },
        "miles" : {
          "estimated_diameter_min" : 0.0478085924,
          "estimated_diameter_max" : 0.1069032625
        },
        "feet" : {
          "estimated_diameter_min" : 252.4294539498,
          "estimated_diameter_max" : 564.4494185549
        }
      },
      "is_potentially_hazardous_asteroid" : false,
      "close_approach_data" : [ {
        "close_approach_date" : "2015-04-22",
        "epoch_date_close_approach" : 1429686000000,
        "relative_velocity" : {
          "kilometers_per_second" : "9.1579297572",
          "kilometers_per_hour" : "32968.5471260037",
          "miles_per_hour" : "20485.3730739327"
        },
        "miss_distance" : {
          "astronomical" : "0.2712301913",
          "lunar" : "105.5085449219",
          "kilometers" : "40575460",
          "miles" : "25212422"
        },
        "orbiting_body" : "Earth"
      } ],
      "orbital_data" : {
        "orbit_id" : "7",
        "orbit_determination_date" : "2017-06-21 06:18:22",
        "orbit_uncertainty" : "5",
        "minimum_orbit_intersection" : ".204752",
        "jupiter_tisserand_invariant" : "4.279",
        "epoch_osculation" : "2458000.5",
        "eccentricity" : ".3050077531968275",
        "semi_major_axis" : "1.605079420013807",
        "inclination" : "11.38529525318176",
        "ascending_node_longitude" : "347.9885069818163",
        "orbital_period" : "742.7509507551408",
        "perihelion_distance" : "1.115517752412929",
        "perihelion_argument" : "251.6175863202297",
        "aphelion_distance" : "2.094641087614686",
        "perihelion_time" : "2457896.572723099070",
        "mean_anomaly" : "50.37195798443188",
        "mean_motion" : ".4846846707284519",
        "equinox" : "J2000"
      }
    } ]
  }
}